{
  "type": "FeatureCollection",
  "features": [
    {
      "type": "Feature",
      "properties": {
        "norad_id": 37238,
        "name": "INTELSAT 17 (IS-17)",
        "group": "intelsat",
        "lat": 0.03519737973695812,
        "lon": 135.20230838649547,
        "alt_km": 35796.76888347638,
        "timestamp": "2025-12-19T22:41:52.047087+00:00",
        "meta_object_name": "INTELSAT 17 (IS-17)",
        "meta_object_id": "2010-065B",
        "meta_epoch": "2025-12-19T17:06:52.666848",
        "meta_mean_motion": 1.00271319,
        "meta_eccentricity": 0.0002785,
        "meta_inclination": 0.0273,
        "meta_ra_of_asc_node": 66.8561,
        "meta_arg_of_pericenter": 222.2913,
        "meta_mean_anomaly": 122.103,
        "meta_ephemeris_type": 0,
        "meta_classification_type": "U",
        "meta_norad_cat_id": 37238,
        "meta_element_set_no": 999,
        "meta_rev_at_epoch": 5144,
        "meta_bstar": 0,
        "meta_mean_motion_dot": 0,
        "meta_mean_motion_ddot": 0,
        "tle_line1": "1 37238U 10065B   25353.71310957  .00000000  00000+0  00000+0 0  9994",
        "tle_line2": "2 37238   0.0273  66.8561 0002785 222.2913 122.1030  1.00271319 51449"
      },
      "geometry": {
        "type": "Point",
        "coordinates": [
          135.20230838649547,
          0.03519737973695812
        ]
      }
    },
    {
      "type": "Feature",
      "properties": {
        "norad_id": 37392,
        "name": "INTELSAT 28 (IS-28)",
        "group": "intelsat",
        "lat": -0.9692380823514092,
        "lon": 37.59578813763651,
        "alt_km": 35795.65848277274,
        "timestamp": "2025-12-19T22:41:52.047098+00:00",
        "meta_object_name": "INTELSAT 28 (IS-28)",
        "meta_object_id": "2011-016A",
        "meta_epoch": "2025-12-19T18:14:53.275776",
        "meta_mean_motion": 1.00270135,
        "meta_eccentricity": 0.0003675,
        "meta_inclination": 1.3417,
        "meta_ra_of_asc_node": 84.9812,
        "meta_arg_of_pericenter": 187.4914,
        "meta_mean_anomaly": 58.1626,
        "meta_ephemeris_type": 0,
        "meta_classification_type": "U",
        "meta_norad_cat_id": 37392,
        "meta_element_set_no": 999,
        "meta_rev_at_epoch": 5148,
        "meta_bstar": 0,
        "meta_mean_motion_dot": -2.02e-06,
        "meta_mean_motion_ddot": 0,
        "tle_line1": "1 37392U 11016A   25353.76033884 -.00000202  00000+0  00000+0 0  9993",
        "tle_line2": "2 37392   1.3417  84.9812 0003675 187.4914  58.1626  1.00270135 51484"
      },
      "geometry": {
        "type": "Point",
        "coordinates": [
          37.59578813763651,
          -0.9692380823514092
        ]
      }
    },
    {
      "type": "Feature",
      "properties": {
        "norad_id": 37834,
        "name": "INTELSAT 18 (IS-18)",
        "group": "intelsat",
        "lat": -0.03588184034358898,
        "lon": -110.76903235489199,
        "alt_km": 35780.25352524145,
        "timestamp": "2025-12-19T22:41:52.047110+00:00",
        "meta_object_name": "INTELSAT 18 (IS-18)",
        "meta_object_id": "2011-056A",
        "meta_epoch": "2025-12-19T15:49:55.310016",
        "meta_mean_motion": 1.00272228,
        "meta_eccentricity": 0.0001651,
        "meta_inclination": 0.0351,
        "meta_ra_of_asc_node": 279.4448,
        "meta_arg_of_pericenter": 5.4986,
        "meta_mean_anomaly": 221.0401,
        "meta_ephemeris_type": 0,
        "meta_classification_type": "U",
        "meta_norad_cat_id": 37834,
        "meta_element_set_no": 999,
        "meta_rev_at_epoch": 5201,
        "meta_bstar": 0,
        "meta_mean_motion_dot": 7.7e-07,
        "meta_mean_motion_ddot": 0,
        "tle_line1": "1 37834U 11056A   25353.65966794  .00000077  00000+0  00000+0 0  9990",
        "tle_line2": "2 37834   0.0351 279.4448 0001651   5.4986 221.0401  1.00272228 52011"
      },
      "geometry": {
        "type": "Point",
        "coordinates": [
          -110.76903235489199,
          -0.03588184034358898
        ]
      }
    },
    {
      "type": "Feature",
      "properties": {
        "norad_id": 38098,
        "name": "INTELSAT 22 (IS-22)",
        "group": "intelsat",
        "lat": 0.02712360721222109,
        "lon": 141.3249746464994,
        "alt_km": 35791.962182834344,
        "timestamp": "2025-12-19T22:41:52.047122+00:00",
        "meta_object_name": "INTELSAT 22 (IS-22)",
        "meta_object_id": "2012-011A",
        "meta_epoch": "2025-12-19T17:04:28.858368",
        "meta_mean_motion": 1.00270549,
        "meta_eccentricity": 0.0001807,
        "meta_inclination": 0.0143,
        "meta_ra_of_asc_node": 47.0579,
        "meta_arg_of_pericenter": 230.7098,
        "meta_mean_anomaly": 139.0054,
        "meta_ephemeris_type": 0,
        "meta_classification_type": "U",
        "meta_norad_cat_id": 38098,
        "meta_element_set_no": 999,
        "meta_rev_at_epoch": 538,
        "meta_bstar": 0,
        "meta_mean_motion_dot": -3.4e-07,
        "meta_mean_motion_ddot": 0,
        "tle_line1": "1 38098U 12011A   25353.71144512 -.00000034  00000+0  00000+0 0  9992",
        "tle_line2": "2 38098   0.0143  47.0579 0001807 230.7098 139.0054  1.00270549  5381"
      },
      "geometry": {
        "type": "Point",
        "coordinates": [
          141.3249746464994,
          0.02712360721222109
        ]
      }
    },
    {
      "type": "Feature",
      "properties": {
        "norad_id": 38356,
        "name": "INTELSAT 19 (IS-19)",
        "group": "intelsat",
        "lat": -0.03479937308758088,
        "lon": -124.77199676490491,
        "alt_km": 35776.14881704708,
        "timestamp": "2025-12-19T22:41:52.047135+00:00",
        "meta_object_name": "INTELSAT 19 (IS-19)",
        "meta_object_id": "2012-030A",
        "meta_epoch": "2025-12-19T17:28:37.236864",
        "meta_mean_motion": 1.00271271,
        "meta_eccentricity": 0.0002741,
        "meta_inclination": 0.0115,
        "meta_ra_of_asc_node": 352.2924,
        "meta_arg_of_pericenter": 272.7431,
        "meta_mean_anomaly": 251.6929,
        "meta_ephemeris_type": 0,
        "meta_classification_type": "U",
        "meta_norad_cat_id": 38356,
        "meta_element_set_no": 999,
        "meta_rev_at_epoch": 4865,
        "meta_bstar": 0,
        "meta_mean_motion_dot": -3.2e-07,
        "meta_mean_motion_ddot": 0,
        "tle_line1": "1 38356U 12030A   25353.72820876 -.00000032  00000+0  00000+0 0  9993",
        "tle_line2": "2 38356   0.0115 352.2924 0002741 272.7431 251.6929  1.00271271 48659"
      },
      "geometry": {
        "type": "Point",
        "coordinates": [
          -124.77199676490491,
          -0.03479937308758088
        ]
      }
    },
    {
      "type": "Feature",
      "properties": {
        "norad_id": 38740,
        "name": "INTELSAT 20 (IS-20)",
        "group": "intelsat",
        "lat": 0.0053332623727652545,
        "lon": 137.71182512224266,
        "alt_km": 35777.36251304088,
        "timestamp": "2025-12-19T22:41:52.047147+00:00",
        "meta_object_name": "INTELSAT 20 (IS-20)",
        "meta_object_id": "2012-043A",
        "meta_epoch": "2025-12-19T10:10:00.721344",
        "meta_mean_motion": 1.00270144,
        "meta_eccentricity": 0.0003081,
        "meta_inclination": 0.0091,
        "meta_ra_of_asc_node": 90.4034,
        "meta_arg_of_pericenter": 92.0729,
        "meta_mean_anomaly": 126.795,
        "meta_ephemeris_type": 0,
        "meta_classification_type": "U",
        "meta_norad_cat_id": 38740,
        "meta_element_set_no": 999,
        "meta_rev_at_epoch": 4894,
        "meta_bstar": 0,
        "meta_mean_motion_dot": 0,
        "meta_mean_motion_ddot": 0,
        "tle_line1": "1 38740U 12043A   25353.42361946  .00000000  00000+0  00000+0 0  9993",
        "tle_line2": "2 38740   0.0091  90.4034 0003081  92.0729 126.7950  1.00270144 48949"
      },
      "geometry": {
        "type": "Point",
        "coordinates": [
          137.71182512224266,
          0.0053332623727652545
        ]
      }
    },
    {
      "type": "Feature",
      "properties": {
        "norad_id": 38749,
        "name": "INTELSAT 21 (IS-21)",
        "group": "intelsat",
        "lat": 0.03161724770759035,
        "lon": 11.260654925171293,
        "alt_km": 35787.9384121506,
        "timestamp": "2025-12-19T22:41:52.047159+00:00",
        "meta_object_name": "INTELSAT 21 (IS-21)",
        "meta_object_id": "2012-045A",
        "meta_epoch": "2025-12-19T11:16:36.486336",
        "meta_mean_motion": 1.00273688,
        "meta_eccentricity": 0.0001541,
        "meta_inclination": 0.0278,
        "meta_ra_of_asc_node": 286.5242,
        "meta_arg_of_pericenter": 333.6711,
        "meta_mean_anomaly": 299.2721,
        "meta_ephemeris_type": 0,
        "meta_classification_type": "U",
        "meta_norad_cat_id": 38749,
        "meta_element_set_no": 999,
        "meta_rev_at_epoch": 4872,
        "meta_bstar": 0,
        "meta_mean_motion_dot": -2.6e-06,
        "meta_mean_motion_ddot": 0,
        "tle_line1": "1 38749U 12045A   25353.46986674 -.00000260  00000+0  00000+0 0  9998",
        "tle_line2": "2 38749   0.0278 286.5242 0001541 333.6711 299.2721  1.00273688 48722"
      },
      "geometry": {
        "type": "Point",
        "coordinates": [
          11.260654925171293,
          0.03161724770759035
        ]
      }
    }
  ]
}